YAM-3                   
1 48915U 21059AN  26138.78842438  .00007787  00000+0  15161-3 0  9993
2 48915  97.6988 323.8396 0006707 101.3061 258.8942 15.47850509272443
FARADAY_PHOENIX         
1 48924U 21059AX  26138.79536784  .00069037  00000+0  53853-3 0  9994
2 48924  97.6846 333.7234 0004660  92.7001 267.4794 15.71467995273037
DEMO8 (TENZING)         
1 48951U 21059CA  26138.49953524  .00012737  00000+0  19990-3 0  9995
2 48951  97.7032 329.6856 0008363  95.5594 264.6613 15.53786833272696
NAPA-2                  
1 48963U 21059CN  26137.96859961  .00131683  00000+0  52621-3 0  9999
2 48963  97.6772 333.1371 0001525 115.8145 244.3283 15.86216288273004
FENGYUN 3E              
1 49008U 21062A   26138.81695317 -.00000347  00000+0 -14287-3 0  9992
2 49008  98.7492 142.5523 0002087 136.3215 223.8126 14.19900464252418
ISS (NAUKA)             
1 49044U 21066A   26138.84297498  .00006222  00000+0  11987-3 0  9997
2 49044  51.6325  85.3646 0007538  73.2548 286.9267 15.49265459566961
STARLINK-3100           
1 49144U 21082Q   26138.66590220  .00000582  00000+0  56576-4 0  9992
2 49144  70.0002 118.0111 0003422 265.5044  94.5724 14.98322142256463
CUTE                    
1 49263U 21088D   26138.23013197  .00060276  00000+0  33444-3 0  9990
2 49263  97.4196 234.9289 0001960 263.6082  96.4962 15.79370120257805
2021-091B               
1 49316U 21091B   26138.86733046  .00002039  00000+0  10223-3 0  9997
2 49316  97.4470 326.8921 0014329 137.5323 222.7022 15.18388935254537
SDGSAT 1                
1 49387U 21100A   26138.86698358  .00002051  00000+0  98883-4 0  9995
2 49387  97.2656 186.9023 0009231  45.1184 315.0799 15.19762688251460
TEIKYOSAT-4 (OORURI)    
1 49396U 21102B   26138.81996045  .00001363  00000+0  88983-4 0  9991
2 49396  97.3692 169.4445 0013071  41.0077 319.2132 15.09393045248298
Z-SAT                   
1 49399U 21102E   26138.86714998  .00001225  00000+0  63299-4 0  9994
2 49399  97.3343 175.0819 0016342 356.4710   3.6406 15.18018245248994
HIBARI                  
1 49400U 21102F   26138.07927508  .00007569  00000+0  25431-3 0  9995
2 49400  97.3256 184.3367 0009955 312.7722  47.2681 15.31075253249583
KOSEN-1                 
1 49402U 21102H   26138.05556801  .00005440  00000+0  21149-3 0  9997
2 49402  97.3206 180.8044 0012308 319.5160  40.5163 15.26386485249420
GLOBAL-14               
1 49469U 21106A   26138.31341731  .00014052  00000+0  25655-3 0  9992
2 49469  42.0035 108.4078 0015361 182.3778 177.6994 15.49064901253493
GAOFEN-3 02             
1 49495U 21109A   26138.84076166 -.00000143  00000+0 -30069-4 0  9993
2 49495  98.4091 147.3537 0004061  81.5127 278.6523 14.42212292236080
GLOBAL-12               
1 49772U 21115BA  26138.52814230  .00016180  00000+0  27256-3 0  9994
2 49772  53.1937 186.9504 0002810 350.8674   9.2285 15.51879840251299
GLOBAL-13               
1 49773U 21115BB  26138.43634525  .00011068  00000+0  24026-3 0  9994
2 49773  53.1958 195.8871 0003692  38.1910 321.9358 15.44920549251163
GLOBAL-17               
1 49949U 21120A   26138.60514000  .00016750  00000+0  28809-3 0  9995
2 49949  41.9947 225.3534 0012152  41.4523 318.7241 15.50695615250304
GLOBAL-16               
1 49950U 21120B   26137.67749629  .00015600  00000+0  28810-3 0  9995
2 49950  41.9955 234.0524 0010526  23.4998 336.6325 15.48737163250113
XW-3 (CAS-9)            
1 50466U 21131B   26138.82881601  .00000308  00000+0  10888-3 0  9991
2 50466  98.4971 231.3796 0004215 169.2042 190.9238 14.41326407230883
ION SCV-004             
1 50993U 22002K   26138.41714245  .00003461  00000+0  12118-3 0  9999
2 50993  97.2851 196.6389 0009196  99.6662 260.5618 15.30125339240742
ETV-A1                  
1 51060U 22002CE  26138.84544420  .00007011  00000+0  17763-3 0  9994
2 51060  97.2889 205.2474 0006875  94.2330 265.9702 15.40013065241326
BRO-5                   
1 51061U 22002CF  26138.81028081  .00017064  00000+0  35553-3 0  9998
2 51061  97.3008 212.2563 0006404  83.7250 276.4728 15.45632858241710
LUDI TANCE 1-01A (L-SA*)
1 51284U 22007A   26138.87020253  .00000332  00000+0  41664-4 0  9990
2 51284  97.8081 146.7068 0001626  91.0697 269.0706 14.88418132234115
LUDI TANCE 1-01B (L-SA*)
1 51822U 22018A   26138.83657079  .00000356  00000+0  44238-4 0  9994
2 51822  97.8089 146.6698 0001614  92.2110 267.9291 14.88419005229344
JILIN-1 GAOFEN 03D15    
1 51839U 22019R   26138.85340791  .00312137  40136-4  81380-3 0  9995
2 51839  97.3633 234.8914 0006539 225.5648 134.5093 15.94928736235442
JILIN-1 GAOFEN 03D12    
1 51841U 22019T   26138.82461543  .00340603  48451-4  82447-3 0  9996
2 51841  97.3648 234.8115 0007033 224.2491 135.8224 15.96303571235442
