OBJECT_NAME,OBJECT_ID,EPOCH,MEAN_MOTION,ECCENTRICITY,INCLINATION,RA_OF_ASC_NODE,ARG_OF_PERICENTER,MEAN_ANOMALY,EPHEMERIS_TYPE,CLASSIFICATION_TYPE,NORAD_CAT_ID,ELEMENT_SET_NO,REV_AT_EPOCH,BSTAR,MEAN_MOTION_DOT,MEAN_MOTION_DDOT
YAM-3,2021-059AN,2026-05-18T18:55:19.866432,15.47850509,.0006707,97.6988,323.8396,101.3061,258.8942,0,U,48915,999,27244,.15161E-3,.7787E-4,0
FARADAY_PHOENIX,2021-059AX,2026-05-18T19:05:19.781376,15.71467995,.000466,97.6846,333.7234,92.7001,267.4794,0,U,48924,999,27303,.53853E-3,.69037E-3,0
DEMO8 (TENZING),2021-059CA,2026-05-18T11:59:19.844736,15.53786833,.0008363,97.7032,329.6856,95.5594,264.6613,0,U,48951,999,27269,.1999E-3,.12737E-3,0
NAPA-2,2021-059CN,2026-05-17T23:14:47.006304,15.86216288,.00015251,97.6772,333.1371,115.8145,244.3283,0,U,48963,999,27300,.52620829E-3,.131683E-2,0
FENGYUN 3E,2021-062A,2026-05-18T19:36:24.753888,14.19900464,.0002087,98.7492,142.5523,136.3215,223.8126,0,U,49008,999,25241,-.14287E-3,-.347E-5,0
ISS (NAUKA),2021-066A,2026-05-18T20:13:53.038272,15.49265459,.0007538,51.6325,85.3646,73.2548,286.9267,0,U,49044,999,56696,.11987E-3,.6222E-4,0
STARLINK-3100,2021-082Q,2026-05-18T15:58:53.950080,14.98322142,.0003422,70.0002,118.0111,265.5044,94.5724,0,U,49144,999,25646,.56576E-4,.582E-5,0
CUTE,2021-088D,2026-05-18T05:31:23.402208,15.79370120,.000196,97.4196,234.9289,263.6082,96.4962,0,U,49263,999,25780,.33444E-3,.60276E-3,0
2021-091B,2021-091B,2026-05-18T20:48:57.351744,15.18388935,.0014329,97.4470,326.8921,137.5323,222.7022,0,U,49316,999,25453,.10223E-3,.2039E-4,0
SDGSAT 1,2021-100A,2026-05-18T20:48:27.381312,15.19762688,.0009231,97.2656,186.9023,45.1184,315.0799,0,U,49387,999,25146,.98883E-4,.2051E-4,0
TEIKYOSAT-4 (OORURI),2021-102B,2026-05-18T19:40:44.582880,15.09393045,.0013071,97.3692,169.4445,41.0077,319.2132,0,U,49396,999,24829,.88983E-4,.1363E-4,0
Z-SAT,2021-102E,2026-05-18T20:48:41.758272,15.18018245,.0016342,97.3343,175.0819,356.4710,3.6406,0,U,49399,999,24899,.63299E-4,.1225E-4,0
HIBARI,2021-102F,2026-05-18T01:54:09.366912,15.31075253,.0009955,97.3256,184.3367,312.7722,47.2681,0,U,49400,999,24958,.25431E-3,.7569E-4,0
KOSEN-1,2021-102H,2026-05-18T01:20:01.076064,15.26386485,.0012308,97.3206,180.8044,319.5160,40.5163,0,U,49402,999,24942,.21149E-3,.544E-4,0
GLOBAL-14,2021-106A,2026-05-18T07:31:19.255584,15.49064901,.0015361,42.0035,108.4078,182.3778,177.6994,0,U,49469,999,25349,.25655E-3,.14052E-3,0
GAOFEN-3 02,2021-109A,2026-05-18T20:10:41.807424,14.42212292,.0004061,98.4091,147.3537,81.5127,278.6523,0,U,49495,999,23608,-.30069E-4,-.143E-5,0
GLOBAL-12,2021-115BA,2026-05-18T12:40:31.494720,15.51879840,.000281,53.1937,186.9504,350.8674,9.2285,0,U,49772,999,25129,.27256E-3,.1618E-3,0
GLOBAL-13,2021-115BB,2026-05-18T10:28:20.229600,15.44920549,.0003692,53.1958,195.8871,38.1910,321.9358,0,U,49773,999,25116,.24026E-3,.11068E-3,0
GLOBAL-17,2021-120A,2026-05-18T14:31:24.096000,15.50695615,.0012152,41.9947,225.3534,41.4523,318.7241,0,U,49949,999,25030,.28809E-3,.1675E-3,0
GLOBAL-16,2021-120B,2026-05-17T16:15:35.679456,15.48737163,.00105264,41.9955,234.0524,23.4998,336.6325,0,U,49950,999,25011,.28809636E-3,.156E-3,0
XW-3 (CAS-9),2021-131B,2026-05-18T19:53:29.703264,14.41326407,.0004215,98.4971,231.3796,169.2042,190.9238,0,U,50466,999,23088,.10888E-3,.308E-5,0
ION SCV-004,2022-002K,2026-05-18T10:00:41.107680,15.30125339,.0009196,97.2851,196.6389,99.6662,260.5618,0,U,50993,999,24074,.12118E-3,.3461E-4,0
ETV-A1,2022-002CE,2026-05-18T20:17:26.378880,15.40013065,.0006875,97.2889,205.2474,94.2330,265.9702,0,U,51060,999,24132,.17763E-3,.7011E-4,0
BRO-5,2022-002CF,2026-05-18T19:26:48.261984,15.45632858,.0006404,97.3008,212.2563,83.7250,276.4728,0,U,51061,999,24171,.35553E-3,.17064E-3,0
LUDI TANCE 1-01A (L-SAR 01A),2022-007A,2026-05-18T20:53:05.498592,14.88418132,.0001626,97.8081,146.7068,91.0697,269.0706,0,U,51284,999,23411,.41664E-4,.332E-5,0
LUDI TANCE 1-01B (L-SAR 01B),2022-018A,2026-05-18T20:04:39.716256,14.88419005,.0001614,97.8089,146.6698,92.2110,267.9291,0,U,51822,999,22934,.44238E-4,.356E-5,0
JILIN-1 GAOFEN 03D15,2022-019R,2026-05-18T20:28:54.443424,15.94928736,.0006539,97.3633,234.8914,225.5648,134.5093,0,U,51839,999,23544,.8138E-3,.312137E-2,.40136E-4
JILIN-1 GAOFEN 03D12,2022-019T,2026-05-18T19:47:26.773152,15.96303571,.0007033,97.3648,234.8115,224.2491,135.8224,0,U,51841,999,23544,.82447E-3,.340603E-2,.48451E-4
